#cP2013 09 22  0  0  0.00000000      96     U IGb08 FIT  EMR
## 1759 000000.00000000   900.00000000 56557 0.0000000000000                    
+   31   G01G02G03G04G05G06G07G08G09G10G11G12G13G14G15G16G17
+        G18G19G20G21G22G23G24G25G26G27G28G29G31G32 00 00 00
+         00 00 00 00 00 00 00 00 00 00 00 00 00 00 00 00 00
+         00 00 00 00 00 00 00 00 00 00 00 00 00 00 00 00 00
+         00 00 00 00 00 00 00 00 00 00 00 00 00 00 00 00 00
++         5  5  5  5  5  5  5  5  5  5  5  5  5  5  5  5  5                    
++         5  5  5  5  5  5  5  5  5  5  5  5  5  5  0  0  0                    
++         0  0  0  0  0  0  0  0  0  0  0  0  0  0  0  0  0                    
++         0  0  0  0  0  0  0  0  0  0  0  0  0  0  0  0  0                    
++         0  0  0  0  0  0  0  0  0  0  0  0  0  0  0  0  0                    
%c G  cc GPS ccc cccc cccc cccc cccc ccccc ccccc ccccc ccccc
%c cc cc ccc ccc cccc cccc cccc cccc ccccc ccccc ccccc ccccc                    
%f  1.2500000  1.025000000  0.00000000000  0.000000000000000
%f  0.0000000  0.000000000  0.00000000000  0.000000000000000                    
%i    0    0    0    0      0      0      0      0         0                    
%i    0    0    0    0      0      0      0      0         0                    
/* CCCCCCCCCCCCCCCCCCCCCCCCCCCCCCCCCCCCCCCCCCCCCCCCCCCCCCCCC                    
/* CCCCCCCCCCCCCCCCCCCCCCCCCCCCCCCCCCCCCCCCCCCCCCCCCCCCCCCCC                    
/* CCCCCCCCCCCCCCCCCCCCCCCCCCCCCCCCCCCCCCCCCCCCCCCCCCCCCCCCC                    
/* PCV:IGS08_1748 OL/AL:FES2004  NONE     YN ORB:CoN CLK:CoN                    
*  2013  9 22 22 30  0.00000000                                                 
PG01  10132.484252  13608.653124 -20489.061253     77.592468                    
PG02  14880.873259 -13947.063716  16971.366600    452.561451                    
PG03  -7651.210032  25323.861439   -255.758047    263.035920                    
PG04  24940.272448  -6767.425171   6407.011015      1.067380                    
PG05   4075.958614 -18054.332870  18965.251804   -399.538248                    
PG06 -13484.984832  21842.687622   6044.691507     67.050204                    
PG07  23344.989275   6413.450139  11349.185815    261.574389                    
PG08  26863.350388   1370.347220    516.798604      8.612188                    
PG09  26547.563049  -1967.664616    145.123153    270.360244                    
PG10  16641.985061  -1683.220786  20409.812395    -95.486556                    
PG11   2794.630648  16955.395868 -20696.220256   -422.151555                    
PG12 -10006.261933 -23844.622411  -6573.998965    157.893856                    
PG13  11246.690207   9729.183472  21868.180782     77.299148                    
PG14 -18336.084169   9825.467567 -16206.537452    215.139260                    
PG15    370.064403 -23357.515812 -12413.313850   -138.408513                    
PG16  -4486.832727  17354.566952  19448.624277   -246.143770                    
PG17  17987.503436  -8419.983606 -17292.820390    -23.997008                    
PG18 -19732.606150 -13668.118686 -11306.163210    275.512141                    
PG19  -5769.939645  23609.261798 -10302.968435   -406.136916                    
PG20  14541.341305  22134.332013  -2678.379101    124.275053                    
PG21 -25024.723693  -4707.545837   8990.269571   -320.015991                    
PG22 -18356.046792  -1450.017305 -18988.363422    186.091059                    
PG23   5100.170784  18668.814928  18099.180391     45.757651                    
PG24  -5565.878899 -14646.444616 -21457.264872    -14.239974                    
PG25 -17883.303379 -18795.672779   5870.835606    150.124266                    
PG26  12611.447000 -23150.620784  -1661.673088    203.057064                    
PG27 -12464.947121  23378.471223   1763.972445    -39.686602                    
PG28  17883.544353   6495.642517 -18019.450701    294.752272                    
PG29  -9663.483066 -12856.679666  21181.487238    472.868247                    
PG31 -24242.371186   7131.919996   8806.587434    326.422722                    
PG32   5323.623223  24196.218483 -10161.564714   -546.700492                    
*  2013  9 22 22 45  0.00000000                                                 
PG01   7771.175508  13929.432869 -21281.438724     77.595978                    
PG02  16716.327794 -13954.304890  15083.951539    452.562720                    
PG03  -7933.028262  25049.730196   2555.455581    263.041667                    
PG04  25578.781290  -6545.078441   3691.180560      1.068436                    
PG05   5517.578547 -16320.218395  20147.421277   -399.537907                    
PG06 -13494.064664  20936.759235   8709.955393     67.067961                    
PG07  21952.076196   6691.344738  13704.957764    261.577994                    
PG08  26657.849912   1469.709591   3396.751533      8.613767                    
PG09  26329.945361  -1759.911669   3031.076413    270.364013                    
PG10  17918.069697    276.118927  19425.149057    -95.488201                    
PG11    668.805966  17779.481869 -20140.184315   -422.155046                    
PG12  -9372.546288 -23195.391237  -9274.223280    157.895925                    
PG13   9978.667614  11884.424309  21403.877620     77.295220                    
PG14 -17536.089252   7988.615824 -17993.198079    215.138224                    
PG15   1118.504703 -24448.840542 -10007.015082   -138.410114                    
PG16  -5828.390188  15478.408375  20666.675132   -246.143084                    
PG17  17192.586551  -6451.761427 -18876.889084    -24.000043                    
PG18 -20212.868022 -14812.219570  -8874.818577    275.513631                    
PG19  -6489.500811  24383.070867  -7675.985395   -406.139447                    
PG20  14000.173153  22004.022910  -5411.926038    124.277215                    
PG21 -23976.194452  -5076.066663  11428.480276   -320.017684                    
PG22 -19483.130429  -3276.006032 -17615.981354    186.093042                    
PG23   4117.651211  20389.089502  16367.518849     45.754438                    
PG24  -3115.794597 -14961.650901 -21729.318236    -14.239574                    
PG25 -18025.400831 -19331.937337   3054.448977    150.127923                    
PG26  12793.008142 -22996.932552   1246.247533    203.073886                    
PG27 -12552.595802  22942.312789   4589.565411    -39.690624                    
PG28  18897.514496   8285.964402 -16233.951256    294.754806                    
PG29  -8542.756950 -14937.088124  20280.795408    472.871062                    
PG31 -25077.114579   7035.649312   6098.123298    326.423317                    
PG32   4465.410577  23198.029891 -12544.021842   -546.697703                    
*  2013  9 22 23  0  0.00000000                                                 
PG01   5360.964033  14384.715997 -21709.080265     77.599502                    
PG02  18329.452228 -14005.875610  12934.895737    452.564281                    
PG03  -8165.347269  24477.597160   5321.831358    263.045826                    
PG04  25921.920920  -6303.848226    912.494820      1.068922                    
PG05   7116.115568 -14573.310234  20980.892541   -399.537692                    
PG06 -13461.530473  19751.452828  11222.373393     67.084785                    
PG07  20326.531917   7083.289684  15829.319288    261.581819                    
PG08  26140.467954   1598.568228   6220.514440      8.614214                    
PG09  25803.982290  -1480.571955   5864.816959    270.368382                    
PG10  19204.174614   2063.466569  18101.204648    -95.487518                    
PG11  -1353.404616  18656.925071 -19249.540074   -422.158099                    
PG12  -8521.548625 -22349.229247 -11816.984797    157.898018                    
PG13   8862.586289  14039.881678  20566.149655     77.291682                    
PG14 -16757.898026   5941.691770 -19463.300754    215.137723                    
PG15   1724.062520 -25307.335646  -7426.169823   -138.411813                    
PG16  -7341.213707  13587.033340  21525.486714   -246.142297                    
PG17  16438.864848  -4295.487605 -20127.760587    -24.003638                    
PG18 -20566.960086 -15710.694632  -6291.102481    275.515626                    
PG19  -7036.870158  24915.908112  -4914.092920   -406.141856                    
PG20  13249.975935  21677.287066  -8053.127869    124.279627                    
PG21 -22693.772500  -5536.754446  13680.310771   -320.019123                    
PG22 -20582.495677  -4912.758501 -15937.337657    186.094734                    
PG23   3297.528461  21960.570854  14351.271364     45.751643                    
PG24   -675.333028 -15405.048076 -21627.707112    -14.240473                    
PG25 -17989.792656 -19613.010577    185.762179    150.131572                    
PG26  12843.062784 -22551.362509   4132.122706    203.090639                    
PG27 -12554.185820  22214.973998   7336.086809    -39.694633                    
PG28  19875.084291   9833.300269 -14159.214240    294.757416                    
PG29  -7582.052069 -16962.285207  19032.572717    472.873925                    
PG31 -25609.261201   6940.799821   3286.921449    326.424072                    
PG32   3408.992300  22034.088571 -14715.067046   -546.694987                    
EOF                                                                             
